{"type": "FeatureCollection", "features": [ {"type": "Feature", "properties": {"norad_id": 66855, "name": "STARLINK-36090", "group": "last-30-days", "lat": -4.257958689682343, "lon": 105.13497238202169, "alt_km": 329.8345162004316, "timestamp": "2025-12-14T18:52:54.243996+00:00", "meta": {"OBJECT_NAME": "STARLINK-36090", "OBJECT_ID": "2025-281H", "EPOCH": "2025-12-13T08:08:04.879968", "MEAN_MOTION": 15.87671578, "ECCENTRICITY": 0.00108829, "INCLINATION": 43.0006, "RA_OF_ASC_NODE": 118.6375, "ARG_OF_PERICENTER": 159.1339, "MEAN_ANOMALY": 200.9981, "EPHEMERIS_TYPE": 0, "CLASSIFICATION_TYPE": "U", "NORAD_CAT_ID": 66855, "ELEMENT_SET_NO": 999, "REV_AT_EPOCH": 289, "BSTAR": -0.00590076, "MEAN_MOTION_DOT": -0.01435026, "MEAN_MOTION_DDOT": 0}, "tle": {"line1": "1 66855U 25281H   25347.33894537 -.01435026  00000+0 -59008-2 0  9997", "line2": "2 66855  43.0006 118.6375 0010882 159.1339 200.9981 15.87671578  2899"}}, "geometry": {"type": "Point", "coordinates": [105.13497238202169, -4.257958689682343]}}, {"type": "Feature", "properties": {"norad_id": 66856, "name": "STARLINK-36072", "group": "last-30-days", "lat": 11.249978497152485, "lon": 121.98428534689245, "alt_km": 304.4077890654007, "timestamp": "2025-12-14T18:52:54.244006+00:00", "meta": {"OBJECT_NAME": "STARLINK-36072", "OBJECT_ID": "2025-281J", "EPOCH": "2025-12-13T17:09:47.979360", "MEAN_MOTION": 15.89078858, "ECCENTRICITY": 0.00021837, "INCLINATION": 43.0008, "RA_OF_ASC_NODE": 116.2949, "ARG_OF_PERICENTER": 294.8736, "MEAN_ANOMALY": 65.1911, "EPHEMERIS_TYPE": 0, "CLASSIFICATION_TYPE": "U", "NORAD_CAT_ID": 66856, "ELEMENT_SET_NO": 999, "REV_AT_EPOCH": 295, "BSTAR": -0.0010338399, "MEAN_MOTION_DOT": -0.0029745, "MEAN_MOTION_DDOT": 0}, "tle": {"line1": "1 66856U 25281J   25347.71513865 -.00297450  00000+0 -10338-2 0  9991", "line2": "2 66856  43.0008 116.2949 0002183 294.8736  65.1911 15.89078858  2951"}}, "geometry": {"type": "Point", "coordinates": [121.98428534689245, 11.249978497152485]}}, {"type": "Feature", "properties": {"norad_id": 66857, "name": "STARLINK-36083", "group": "last-30-days", "lat": 12.55878764116949, "lon": 123.48558347531578, "alt_km": 304.86356166981477, "timestamp": "2025-12-14T18:52:54.244016+00:00", "meta": {"OBJECT_NAME": "STARLINK-36083", "OBJECT_ID": "2025-281K", "EPOCH": "2025-12-13T18:39:42.493824", "MEAN_MOTION": 15.8893883, "ECCENTRICITY": 0.00015275, "INCLINATION": 43.0002, "RA_OF_ASC_NODE": 115.902, "ARG_OF_PERICENTER": 288.1243, "MEAN_ANOMALY": 71.9465, "EPHEMERIS_TYPE": 0, "CLASSIFICATION_TYPE": "U", "NORAD_CAT_ID": 66857, "ELEMENT_SET_NO": 999, "REV_AT_EPOCH": 296, "BSTAR": -0.0010781444, "MEAN_MOTION_DOT": -0.00307582, "MEAN_MOTION_DDOT": 0}, "tle": {"line1": "1 66857U 25281K   25347.77757516 -.00307582  00000+0 -10781-2 0  9991", "line2": "2 66857  43.0002 115.9020 0001527 288.1243  71.9465 15.88938830  2966"}}, "geometry": {"type": "Point", "coordinates": [123.48558347531578, 12.55878764116949]}}, {"type": "Feature", "properties": {"norad_id": 66858, "name": "STARLINK-35118", "group": "last-30-days", "lat": 20.597773723003268, "lon": 133.40732760247826, "alt_km": 297.6977300054732, "timestamp": "2025-12-14T18:52:54.244026+00:00", "meta": {"OBJECT_NAME": "STARLINK-35118", "OBJECT_ID": "2025-281L", "EPOCH": "2025-12-13T06:35:03.524640", "MEAN_MOTION": 15.90299033, "ECCENTRICITY": 0.00033218, "INCLINATION": 43.0003, "RA_OF_ASC_NODE": 119.0123, "ARG_OF_PERICENTER": 249.825, "MEAN_ANOMALY": 110.2268, "EPHEMERIS_TYPE": 0, "CLASSIFICATION_TYPE": "U", "NORAD_CAT_ID": 66858, "ELEMENT_SET_NO": 999, "REV_AT_EPOCH": 288, "BSTAR": 0.00066906156, "MEAN_MOTION_DOT": 0.00215829, "MEAN_MOTION_DDOT": 0}, "tle": {"line1": "1 66858U 25281L   25347.27434635  .00215829  00000+0  66906-3 0  9992", "line2": "2 66858  43.0003 119.0123 0003321 249.8250 110.2268 15.90299033  2880"}}, "geometry": {"type": "Point", "coordinates": [133.40732760247826, 20.597773723003268]}}, {"type": "Feature", "properties": {"norad_id": 66859, "name": "STARLINK-35646", "group": "last-30-days", "lat": 27.68247869365451, "lon": 143.85600586523682, "alt_km": 288.2620097337085, "timestamp": "2025-12-14T18:52:54.244040+00:00", "meta": {"OBJECT_NAME": "STARLINK-35646", "OBJECT_ID": "2025-281M", "EPOCH": "2025-12-13T18:37:07.234752", "MEAN_MOTION": 15.91879357, "ECCENTRICITY": 0.0003721, "INCLINATION": 43.0005, "RA_OF_ASC_NODE": 115.8872, "ARG_OF_PERICENTER": 336.0212, "MEAN_ANOMALY": 24.0489, "EPHEMERIS_TYPE": 0, "CLASSIFICATION_TYPE": "U", "NORAD_CAT_ID": 66859, "ELEMENT_SET_NO": 999, "REV_AT_EPOCH": 296, "BSTAR": 0.0016616396, "MEAN_MOTION_DOT": 0.00565833, "MEAN_MOTION_DDOT": 0.00013299212}, "tle": {"line1": "1 66859U 25281M   25347.77577818  .00565833  13299-3  16616-2 0  9992", "line2": "2 66859  43.0005 115.8872 0003721 336.0212  24.0489 15.91879357  2969"}}, "geometry": {"type": "Point", "coordinates": [143.85600586523682, 27.68247869365451]}}, {"type": "Feature", "properties": {"norad_id": 66860, "name": "STARLINK-35987", "group": "last-30-days", "lat": 25.784791901711785, "lon": 140.82692622699238, "alt_km": 302.9004173137537, "timestamp": "2025-12-14T18:52:54.244052+00:00", "meta": {"OBJECT_NAME": "STARLINK-35987", "OBJECT_ID": "2025-281N", "EPOCH": "2025-12-13T17:04:04.991232", "MEAN_MOTION": 15.8918993, "ECCENTRICITY": 0.00023726, "INCLINATION": 43.0004, "RA_OF_ASC_NODE": 116.2611, "ARG_OF_PERICENTER": 287.3827, "MEAN_ANOMALY": 72.6788, "EPHEMERIS_TYPE": 0, "CLASSIFICATION_TYPE": "U", "NORAD_CAT_ID": 66860, "ELEMENT_SET_NO": 999, "REV_AT_EPOCH": 295, "BSTAR": -0.0011579528, "MEAN_MOTION_DOT": -0.00333652, "MEAN_MOTION_DDOT": 0}, "tle": {"line1": "1 66860U 25281N   25347.71116888 -.00333652  00000+0 -11580-2 0  9995", "line2": "2 66860  43.0004 116.2611 0002372 287.3827  72.6788 15.89189930  2955"}}, "geometry": {"type": "Point", "coordinates": [140.82692622699238, 25.784791901711785]}}, {"type": "Feature", "properties": {"norad_id": 66861, "name": "STARLINK-35991", "group": "last-30-days", "lat": 21.043887590646257, "lon": 134.00661217346604, "alt_km": 303.1137184377558, "timestamp": "2025-12-14T18:52:54.244062+00:00", "meta": {"OBJECT_NAME": "STARLINK-35991", "OBJECT_ID": "2025-281P", "EPOCH": "2025-12-13T17:06:18.939744", "MEAN_MOTION": 15.89247806, "ECCENTRICITY": 0.00037778, "INCLINATION": 43.0005, "RA_OF_ASC_NODE": 116.2745, "ARG_OF_PERICENTER": 267.4063, "MEAN_ANOMALY": 92.6379, "EPHEMERIS_TYPE": 0, "CLASSIFICATION_TYPE": "U", "NORAD_CAT_ID": 66861, "ELEMENT_SET_NO": 999, "REV_AT_EPOCH": 295, "BSTAR": -0.00049949811, "MEAN_MOTION_DOT": -0.00147754, "MEAN_MOTION_DDOT": 0}, "tle": {"line1": "1 66861U 25281P   25347.71271921 -.00147754  00000+0 -49950-3 0  9995", "line2": "2 66861  43.0005 116.2745 0003777 267.4063  92.6379 15.89247806  2951"}}, "geometry": {"type": "Point", "coordinates": [134.00661217346604, 21.043887590646257]}}, {"type": "Feature", "properties": {"norad_id": 66862, "name": "STARLINK-35974", "group": "last-30-days", "lat": 17.850807653599606, "lon": 129.85191603263354, "alt_km": 304.8788058844175, "timestamp": "2025-12-14T18:52:54.244073+00:00", "meta": {"OBJECT_NAME": "STARLINK-35974", "OBJECT_ID": "2025-281Q", "EPOCH": "2025-12-13T20:08:05.394048", "MEAN_MOTION": 15.88814912, "ECCENTRICITY": 0.00027351, "INCLINATION": 43, "RA_OF_ASC_NODE": 115.5001, "ARG_OF_PERICENTER": 280.3243, "MEAN_ANOMALY": 79.7323, "EPHEMERIS_TYPE": 0, "CLASSIFICATION_TYPE": "U", "NORAD_CAT_ID": 66862, "ELEMENT_SET_NO": 999, "REV_AT_EPOCH": 297, "BSTAR": -0.0011682368, "MEAN_MOTION_DOT": -0.00330452, "MEAN_MOTION_DDOT": 0}, "tle": {"line1": "1 66862U 25281Q   25347.83895132 -.00330452  00000+0 -11682-2 0  9994", "line2": "2 66862  43.0000 115.5001 0002735 280.3243  79.7323 15.88814912  2975"}}, "geometry": {"type": "Point", "coordinates": [129.85191603263354, 17.850807653599606]}}, {"type": "Feature", "properties": {"norad_id": 66863, "name": "STARLINK-36134", "group": "last-30-days", "lat": 29.301490741022377, "lon": 146.61643463310213, "alt_km": 294.2987446910047, "timestamp": "2025-12-14T18:52:54.244083+00:00", "meta": {"OBJECT_NAME": "STARLINK-36134", "OBJECT_ID": "2025-281R", "EPOCH": "2025-12-13T09:32:53.648160", "MEAN_MOTION": 15.90340197, "ECCENTRICITY": 0.00045936, "INCLINATION": 43.0003, "RA_OF_ASC_NODE": 118.2156, "ARG_OF_PERICENTER": 236.9569, "MEAN_ANOMALY": 123.0865, "EPHEMERIS_TYPE": 0, "CLASSIFICATION_TYPE": "U", "NORAD_CAT_ID": 66863, "ELEMENT_SET_NO": 999, "REV_AT_EPOCH": 290, "BSTAR": 0.0018853581, "MEAN_MOTION_DOT": 0.00640569, "MEAN_MOTION_DDOT": 0}, "tle": {"line1": "1 66863U 25281R   25347.39784315  .00640569  00000+0  18854-2 0  9995", "line2": "2 66863  43.0003 118.2156 0004593 236.9569 123.0865 15.90340197  2901"}}, "geometry": {"type": "Point", "coordinates": [146.61643463310213, 29.301490741022377]}}, {"type": "Feature", "properties": {"norad_id": 66864, "name": "STARLINK-36070", "group": "last-30-days", "lat": 28.655061156303702, "lon": 145.49004216158465, "alt_km": 298.1563068186488, "timestamp": "2025-12-14T18:52:54.244093+00:00", "meta": {"OBJECT_NAME": "STARLINK-36070", "OBJECT_ID": "2025-281S", "EPOCH": "2025-12-13T06:31:20.574624", "MEAN_MOTION": 15.90380504, "ECCENTRICITY": 0.00029883, "INCLINATION": 43.001, "RA_OF_ASC_NODE": 118.9904, "ARG_OF_PERICENTER": 246.7998, "MEAN_ANOMALY": 113.2562, "EPHEMERIS_TYPE": 0, "CLASSIFICATION_TYPE": "U", "NORAD_CAT_ID": 66864, "ELEMENT_SET_NO": 999, "REV_AT_EPOCH": 288, "BSTAR": 5.7561017e-05, "MEAN_MOTION_DOT": 0.00017671, "MEAN_MOTION_DDOT": 0}, "tle": {"line1": "1 66864U 25281S   25347.27176591  .00017671  00000+0  57561-4 0  9996", "line2": "2 66864  43.0010 118.9904 0002988 246.7998 113.2562 15.90380504  2887"}}, "geometry": {"type": "Point", "coordinates": [145.49004216158465, 28.655061156303702]}}]}